{"fetched_at":"2026-03-29T16:36:15Z","count":15609,"tles":[{"name":"STARLINK-32690","line1":"1 62453U 24251X   26087.71337588  .00027239  00000+0  92813-3 0  9997","line2":"2 62453  53.1582 246.7510 0001055  83.1216 276.9905 15.30210663 70487","category":"Starlink"}]}